{"type": "FeatureCollection", "features": [ {"type": "Feature", "properties": {"norad_id": 66920, "name": "HULIANWANG DIGUI-110", "group": "last-30-days", "lat": -49.98945282988354, "lon": 33.938765613396534, "alt_km": 873.9699571693891, "timestamp": "2025-12-10T21:43:20.863978+00:00", "meta": {"OBJECT_NAME": "HULIANWANG DIGUI-110", "OBJECT_ID": "2025-285F", "EPOCH": "2025-12-10T17:02:00.436992", "MEAN_MOTION": 14.05850313, "ECCENTRICITY": 0.0005821, "INCLINATION": 50.01, "RA_OF_ASC_NODE": 125.549, "ARG_OF_PERICENTER": 281.7881, "MEAN_ANOMALY": 78.2371, "EPHEMERIS_TYPE": 0, "CLASSIFICATION_TYPE": "U", "NORAD_CAT_ID": 66920, "ELEMENT_SET_NO": 999, "REV_AT_EPOCH": 62, "BSTAR": 0.0002287, "MEAN_MOTION_DOT": 2.24e-06, "MEAN_MOTION_DDOT": 0}, "tle": {"line1": "1 66920U 25285F   25344.70972728  .00000224  00000+0  22870-3 0  9994", "line2": "2 66920  50.0100 125.5490 0005821 281.7881  78.2371 14.05850313   624"}}, "geometry": {"type": "Point", "coordinates": [33.938765613396534, -49.98945282988354]}}, {"type": "Feature", "properties": {"norad_id": 66921, "name": "HULIANWANG DIGUI-111", "group": "last-30-days", "lat": -49.993777214526, "lon": 34.78945044982301, "alt_km": 873.1845709552772, "timestamp": "2025-12-10T21:43:20.863987+00:00", "meta": {"OBJECT_NAME": "HULIANWANG DIGUI-111", "OBJECT_ID": "2025-285G", "EPOCH": "2025-12-10T17:01:51.136032", "MEAN_MOTION": 14.05883988, "ECCENTRICITY": 0.0006973, "INCLINATION": 50.0115, "RA_OF_ASC_NODE": 125.5503, "ARG_OF_PERICENTER": 288.2922, "MEAN_ANOMALY": 71.7224, "EPHEMERIS_TYPE": 0, "CLASSIFICATION_TYPE": "U", "NORAD_CAT_ID": 66921, "ELEMENT_SET_NO": 999, "REV_AT_EPOCH": 62, "BSTAR": 0.00024905, "MEAN_MOTION_DOT": 2.58e-06, "MEAN_MOTION_DDOT": 0}, "tle": {"line1": "1 66921U 25285G   25344.70961963  .00000258  00000+0  24905-3 0  9992", "line2": "2 66921  50.0115 125.5503 0006973 288.2922  71.7224 14.05883988   622"}}, "geometry": {"type": "Point", "coordinates": [34.78945044982301, -49.993777214526]}}, {"type": "Feature", "properties": {"norad_id": 66922, "name": "HULIANWANG DIGUI-112", "group": "last-30-days", "lat": -49.95367906925419, "lon": 37.65770320897993, "alt_km": 872.9540822338204, "timestamp": "2025-12-10T21:43:20.863997+00:00", "meta": {"OBJECT_NAME": "HULIANWANG DIGUI-112", "OBJECT_ID": "2025-285H", "EPOCH": "2025-12-10T15:18:59.874336", "MEAN_MOTION": 14.05998149, "ECCENTRICITY": 0.00069366, "INCLINATION": 50.0079, "RA_OF_ASC_NODE": 125.8353, "ARG_OF_PERICENTER": 294.2613, "MEAN_ANOMALY": 65.7568, "EPHEMERIS_TYPE": 0, "CLASSIFICATION_TYPE": "U", "NORAD_CAT_ID": 66922, "ELEMENT_SET_NO": 999, "REV_AT_EPOCH": 61, "BSTAR": -1.870944e-06, "MEAN_MOTION_DOT": -1.55e-06, "MEAN_MOTION_DDOT": 0}, "tle": {"line1": "1 66922U 25285H   25344.63819299 -.00000155  00000+0 -18709-5 0  9994", "line2": "2 66922  50.0079 125.8353 0006936 294.2613  65.7568 14.05998149   610"}}, "geometry": {"type": "Point", "coordinates": [37.65770320897993, -49.95367906925419]}}, {"type": "Feature", "properties": {"norad_id": 66923, "name": "HULIANWANG DIGUI-113", "group": "last-30-days", "lat": -49.904623209013, "lon": 39.194317904576636, "alt_km": 873.6432544621739, "timestamp": "2025-12-10T21:43:20.864007+00:00", "meta": {"OBJECT_NAME": "HULIANWANG DIGUI-113", "OBJECT_ID": "2025-285J", "EPOCH": "2025-12-10T15:18:44.344800", "MEAN_MOTION": 14.06055236, "ECCENTRICITY": 0.00053881, "INCLINATION": 50.0076, "RA_OF_ASC_NODE": 125.8351, "ARG_OF_PERICENTER": 289.1569, "MEAN_ANOMALY": 70.8753, "EPHEMERIS_TYPE": 0, "CLASSIFICATION_TYPE": "U", "NORAD_CAT_ID": 66923, "ELEMENT_SET_NO": 999, "REV_AT_EPOCH": 61, "BSTAR": 0.00020757938, "MEAN_MOTION_DOT": 1.9e-06, "MEAN_MOTION_DDOT": 0}, "tle": {"line1": "1 66923U 25285J   25344.63801325  .00000190  00000+0  20758-3 0  9998", "line2": "2 66923  50.0076 125.8351 0005388 289.1569  70.8753 14.06055236   614"}}, "geometry": {"type": "Point", "coordinates": [39.194317904576636, -49.904623209013]}}, {"type": "Feature", "properties": {"norad_id": 66924, "name": "CZ-8A R/B", "group": "last-30-days", "lat": -35.577523372696525, "lon": 87.05824196250505, "alt_km": 867.4356149934647, "timestamp": "2025-12-10T21:43:20.864028+00:00", "meta": {"OBJECT_NAME": "CZ-8A R/B", "OBJECT_ID": "2025-285K", "EPOCH": "2025-12-10T15:14:58.228224", "MEAN_MOTION": 14.30500545, "ECCENTRICITY": 0.01193137, "INCLINATION": 50.006, "RA_OF_ASC_NODE": 125.1122, "ARG_OF_PERICENTER": 99.3237, "MEAN_ANOMALY": 262.1193, "EPHEMERIS_TYPE": 0, "CLASSIFICATION_TYPE": "U", "NORAD_CAT_ID": 66924, "ELEMENT_SET_NO": 999, "REV_AT_EPOCH": 62, "BSTAR": 9.8432288e-05, "MEAN_MOTION_DOT": 1.12e-06, "MEAN_MOTION_DDOT": 0}, "tle": {"line1": "1 66924U 25285K   25344.63539616  .00000112  00000+0  98432-4 0  9999", "line2": "2 66924  50.0060 125.1122 0119313  99.3237 262.1193 14.30500545   624"}}, "geometry": {"type": "Point", "coordinates": [87.05824196250505, -35.577523372696525]}}, {"type": "Feature", "properties": {"norad_id": 66953, "name": "HULIANWANG DIGUI-114", "group": "last-30-days", "lat": 22.28373198060448, "lon": 165.38734796468657, "alt_km": 999.0050312593303, "timestamp": "2025-12-10T21:43:20.864045+00:00", "meta": {"OBJECT_NAME": "HULIANWANG DIGUI-114", "OBJECT_ID": "2025-287A", "EPOCH": "2025-12-10T06:55:20.076384", "MEAN_MOTION": 13.69073793, "ECCENTRICITY": 0.00082441, "INCLINATION": 86.4956, "RA_OF_ASC_NODE": 347.0512, "ARG_OF_PERICENTER": 213.3003, "MEAN_ANOMALY": 146.7638, "EPHEMERIS_TYPE": 0, "CLASSIFICATION_TYPE": "U", "NORAD_CAT_ID": 66953, "ELEMENT_SET_NO": 999, "REV_AT_EPOCH": 19, "BSTAR": 9.649594e-06, "MEAN_MOTION_DOT": 2.5e-07, "MEAN_MOTION_DDOT": 0}, "tle": {"line1": "1 66953U 25287A   25344.28842681  .00000025  00000+0  96496-5 0  9995", "line2": "2 66953  86.4956 347.0512 0008244 213.3003 146.7638 13.69073793   194"}}, "geometry": {"type": "Point", "coordinates": [165.38734796468657, 22.28373198060448]}}, {"type": "Feature", "properties": {"norad_id": 66954, "name": "HULIANWANG DIGUI-115", "group": "last-30-days", "lat": 21.616707380180625, "lon": 165.43734252479808, "alt_km": 998.6617470199981, "timestamp": "2025-12-10T21:43:20.864055+00:00", "meta": {"OBJECT_NAME": "HULIANWANG DIGUI-115", "OBJECT_ID": "2025-287B", "EPOCH": "2025-12-10T10:25:40.434528", "MEAN_MOTION": 13.69168852, "ECCENTRICITY": 0.00081957, "INCLINATION": 86.4972, "RA_OF_ASC_NODE": 346.9997, "ARG_OF_PERICENTER": 212.0231, "MEAN_ANOMALY": 148.0431, "EPHEMERIS_TYPE": 0, "CLASSIFICATION_TYPE": "U", "NORAD_CAT_ID": 66954, "ELEMENT_SET_NO": 999, "REV_AT_EPOCH": 21, "BSTAR": 1.1007839e-05, "MEAN_MOTION_DOT": 2.6e-07, "MEAN_MOTION_DDOT": 0}, "tle": {"line1": "1 66954U 25287B   25344.43449577  .00000026  00000+0  11008-4 0  9996", "line2": "2 66954  86.4972 346.9997 0008195 212.0231 148.0431 13.69168852   212"}}, "geometry": {"type": "Point", "coordinates": [165.43734252479808, 21.616707380180625]}}, {"type": "Feature", "properties": {"norad_id": 66955, "name": "HULIANWANG DIGUI-116", "group": "last-30-days", "lat": 20.72176945721164, "lon": 165.48757315546732, "alt_km": 998.1464124847507, "timestamp": "2025-12-10T21:43:20.864066+00:00", "meta": {"OBJECT_NAME": "HULIANWANG DIGUI-116", "OBJECT_ID": "2025-287C", "EPOCH": "2025-12-09T09:52:18.926688", "MEAN_MOTION": 13.69296672, "ECCENTRICITY": 0.00076324, "INCLINATION": 86.4914, "RA_OF_ASC_NODE": 347.3632, "ARG_OF_PERICENTER": 209.8722, "MEAN_ANOMALY": 150.2003, "EPHEMERIS_TYPE": 0, "CLASSIFICATION_TYPE": "U", "NORAD_CAT_ID": 66955, "ELEMENT_SET_NO": 999, "REV_AT_EPOCH": 7, "BSTAR": 3.470494e-06, "MEAN_MOTION_DOT": 2e-07, "MEAN_MOTION_DDOT": 0}, "tle": {"line1": "1 66955U 25287C   25343.41133017  .00000020  00000+0  34705-5 0  9997", "line2": "2 66955  86.4914 347.3632 0007632 209.8722 150.2003 13.69296672    70"}}, "geometry": {"type": "Point", "coordinates": [165.48757315546732, 20.72176945721164]}}, {"type": "Feature", "properties": {"norad_id": 66956, "name": "HULIANWANG DIGUI-117", "group": "last-30-days", "lat": 19.977054388457606, "lon": 165.5520445634222, "alt_km": 997.6869341596021, "timestamp": "2025-12-10T21:43:20.864078+00:00", "meta": {"OBJECT_NAME": "HULIANWANG DIGUI-117", "OBJECT_ID": "2025-287D", "EPOCH": "2025-12-10T08:40:06.191328", "MEAN_MOTION": 13.69398761, "ECCENTRICITY": 0.00070713, "INCLINATION": 86.4971, "RA_OF_ASC_NODE": 347.0263, "ARG_OF_PERICENTER": 199.7388, "MEAN_ANOMALY": 160.3499, "EPHEMERIS_TYPE": 0, "CLASSIFICATION_TYPE": "U", "NORAD_CAT_ID": 66956, "ELEMENT_SET_NO": 999, "REV_AT_EPOCH": 20, "BSTAR": 1.0798013e-05, "MEAN_MOTION_DOT": 2.6e-07, "MEAN_MOTION_DDOT": 0}, "tle": {"line1": "1 66956U 25287D   25344.36118277  .00000026  00000+0  10798-4 0  9995", "line2": "2 66956  86.4971 347.0263 0007071 199.7388 160.3499 13.69398761   201"}}, "geometry": {"type": "Point", "coordinates": [165.5520445634222, 19.977054388457606]}}, {"type": "Feature", "properties": {"norad_id": 66957, "name": "HULIANWANG DIGUI-118", "group": "last-30-days", "lat": 19.212077027341387, "lon": 165.60109419146025, "alt_km": 997.3518423601854, "timestamp": "2025-12-10T21:43:20.864088+00:00", "meta": {"OBJECT_NAME": "HULIANWANG DIGUI-118", "OBJECT_ID": "2025-287E", "EPOCH": "2025-12-10T08:39:56.683872", "MEAN_MOTION": 13.69509074, "ECCENTRICITY": 0.00068996, "INCLINATION": 86.4942, "RA_OF_ASC_NODE": 347.0238, "ARG_OF_PERICENTER": 197.517, "MEAN_ANOMALY": 162.5753, "EPHEMERIS_TYPE": 0, "CLASSIFICATION_TYPE": "U", "NORAD_CAT_ID": 66957, "ELEMENT_SET_NO": 999, "REV_AT_EPOCH": 20, "BSTAR": -0.00019874691, "MEAN_MOTION_DOT": -1.56e-06, "MEAN_MOTION_DDOT": 0}, "tle": {"line1": "1 66957U 25287E   25344.36107273 -.00000156  00000+0 -19875-3 0  9990", "line2": "2 66957  86.4942 347.0238 0006899 197.5170 162.5753 13.69509074   202"}}, "geometry": {"type": "Point", "coordinates": [165.60109419146025, 19.212077027341387]}}]}